STARLINK-2022           
1 47643U 21012Z   23262.89889991 -.00000067  00000+0  14389-4 0  9998
2 47643  53.0522 139.9160 0001324  99.1563 260.9576 15.06392891143822
